[{"OBJECT_NAME":"QIANFAN-107","OBJECT_ID":"2025-233S","EPOCH":"2026-03-09T22:55:08.938848","MEAN_MOTION":13.51003539,"ECCENTRICITY":0.00019801,"INCLINATION":88.9946,"RA_OF_ASC_NODE":53.2086,"ARG_OF_PERICENTER":90.3361,"MEAN_ANOMALY":269.8017,"EPHEMERIS_TYPE":0,"CLASSIFICATION_TYPE":"U","NORAD_CAT_ID":66049,"ELEMENT_SET_NO":999,"REV_AT_EPOCH":1979,"BSTAR":6.9744009e-5,"MEAN_MOTION_DOT":5.7e-7,"MEAN_MOTION_DDOT":0},{"OBJECT_NAME":"TRANSIT 5B-2 DEB","OBJECT_ID":"1963-049N","EPOCH":"2026-03-09T23:15:37.139040","MEAN_MOTION":13.57218957,"ECCENTRICITY":0.00402858,"INCLINATION":89.9157,"RA_OF_ASC_NODE":72.7606,"ARG_OF_PERICENTER":316.6921,"MEAN_ANOMALY":98.6968,"EPHEMERIS_TYPE":0,"CLASSIFICATION_TYPE":"U","NORAD_CAT_ID":25156,"ELEMENT_SET_NO":999,"REV_AT_EPOCH":38557,"BSTAR":0.0011006772,"MEAN_MOTION_DOT":7.98e-6,"MEAN_MOTION_DDOT":0}]
